[{"OBJECT_NAME":"NOAA 18","OBJECT_ID":"2005-018A","EPOCH":"2026-03-13T13:49:26.299776","MEAN_MOTION":14.13711684,"ECCENTRICITY":0.00151984,"INCLINATION":98.8151,"RA_OF_ASC_NODE":153.6287,"ARG_OF_PERICENTER":65.2528,"MEAN_ANOMALY":295.0224,"EPHEMERIS_TYPE":0,"CLASSIFICATION_TYPE":"U","NORAD_CAT_ID":28654,"ELEMENT_SET_NO":999,"REV_AT_EPOCH":7280,"BSTAR":4.887631e-5,"MEAN_MOTION_DOT":4.9e-7,"MEAN_MOTION_DDOT":0},{"OBJECT_NAME":"NOAA 19","OBJECT_ID":"2009-005A","EPOCH":"2026-03-13T15:05:16.292256","MEAN_MOTION":14.13457668,"ECCENTRICITY":0.0012741,"INCLINATION":98.9599,"RA_OF_ASC_NODE":143.4062,"ARG_OF_PERICENTER":302.7236,"MEAN_ANOMALY":57.2708,"EPHEMERIS_TYPE":0,"CLASSIFICATION_TYPE":"U","NORAD_CAT_ID":33591,"ELEMENT_SET_NO":999,"REV_AT_EPOCH":88098,"BSTAR":5.2700703e-5,"MEAN_MOTION_DOT":5.4e-7,"MEAN_MOTION_DDOT":0},{"OBJECT_NAME":"SUOMI NPP","OBJECT_ID":"2011-061A","EPOCH":"2026-03-13T13:11:09.284064","MEAN_MOTION":14.19544815,"ECCENTRICITY":6.413e-5,"INCLINATION":98.7873,"RA_OF_ASC_NODE":14.1215,"ARG_OF_PERICENTER":202.3308,"MEAN_ANOMALY":157.7841,"EPHEMERIS_TYPE":0,"CLASSIFICATION_TYPE":"U","NORAD_CAT_ID":37849,"ELEMENT_SET_NO":999,"REV_AT_EPOCH":74487,"BSTAR":6.9195714e-5,"MEAN_MOTION_DOT":1.02e-6,"MEAN_MOTION_DDOT":0},{"OBJECT_NAME":"NOAA 20 (JPSS-1)","OBJECT_ID":"2017-073A","EPOCH":"2026-03-13T13:32:18.959712","MEAN_MOTION":14.19537252,"ECCENTRICITY":0.00013725,"INCLINATION":98.7695,"RA_OF_ASC_NODE":12.9127,"ARG_OF_PERICENTER":132.6241,"MEAN_ANOMALY":227.5051,"EPHEMERIS_TYPE":0,"CLASSIFICATION_TYPE":"U","NORAD_CAT_ID":43013,"ELEMENT_SET_NO":999,"REV_AT_EPOCH":43090,"BSTAR":6.8224841e-5,"MEAN_MOTION_DOT":1.0e-6,"MEAN_MOTION_DDOT":0}]
