NOAA 18                 
1 28654U 05018A   26072.57599884  .00000049  00000+0  48876-4 0  9990
2 28654  98.8151 153.6287 0015198  65.2528 295.0224 14.13711684 72800
NOAA 19                 
1 33591U 09005A   26072.62866079  .00000054  00000+0  52701-4 0  9993
2 33591  98.9599 143.4062 0012741 302.7236  57.2708 14.13457668880987
SUOMI NPP               
1 37849U 11061A   26072.54941301  .00000102  00000+0  69196-4 0  9991
2 37849  98.7873  14.1215 0000641 202.3308 157.7841 14.19544815744873
NOAA 20 (JPSS-1)        
1 43013U 17073A   26072.56410833  .00000100  00000+0  68225-4 0  9993
2 43013  98.7695  12.9127 0001372 132.6241 227.5051 14.19537252430908
